#dP2024  3 21  0  0  0.00000000      96 __u+U IGS20 EXT  IAC
## 2306 345600.00000000   900.00000000 60390 0.0000000000000
+  120   C06C07C08C09C10C11C12C13C14C16C19C20C21C22C23C24C25
+        C26C27C28C29C30C32C33C34C35C36C37C38C39C40C41C42C43
+        C44C45C46E02E03E04E05E07E08E09E10E11E12E13E14E15E18
+        E19E21E24E25E26E27E30E31E33E34E36G01G02G03G04G05G06
+        G07G08G09G10G11G12G13G14G15G16G17G18G19G20G21G22G23
+        G24G25G26G27G28G29G30G31G32J02J03J04R01R02R03R04R05
+        R07R08R09R11R12R13R14R15R16R17R18R19R20R21R22R24R25
+        R26  0  0  0  0  0  0  0  0  0  0  0  0  0  0  0  0
++         8  9  9  8  8 10  8  9 10  9  9  9  9  9  7  9  7
++         7  8  9  9  8  9  7  8 10  7  8  8 12  9 10  9  9
++         8  9  9  8  8  8  7  7  8  8  7  8  8  8  7  7  8
++         8  8  7  8  8  8  7  7  8  8  7  7  7  8  8  9  8
++         7  8  8  9  7  7  7  8  8  7  7  7  7  9  7  7  8
++         7  8  7  8 11  8  7  7  8  9  8  0 10  9  7  7  7
++         9  8  8  8  8  7  8  9  7  7  7  9  9  8  8  7  8
++         8  0  0  0  0  0  0  0  0  0  0  0  0  0  0  0  0
%c M  cc GPS ccc cccc cccc cccc cccc ccccc ccccc ccccc ccccc
%c cc cc ccc ccc cccc cccc cccc cccc ccccc ccccc ccccc ccccc
%f  0.0000000  0.000000000  0.00000000000  0.000000000000000
%f  0.0000000  0.000000000  0.00000000000  0.000000000000000
%i    0    0    0    0      0      0      0      0         0
%i    0    0    0    0      0      0      0      0         0
/* IAC                                ULTRA-RAPID PREDICTION
/* S/V CLOCKS ARE ALIGNED TO GNSS TIME                      
/* G:C1WC2W R:C1PC2P E:C1XC5X C:C2IC6I J:C1CC2S             
/* PCV:IGS20_2290 OL/AL:FES2004  NONE     YN ORB:CoN CLK:CoN
*  2024 03 21 18 30  0.00000000
PC06  -2367.174618  38015.143900  18465.090264    289.083778
PC07 -12283.088256  25913.051268 -30866.251761   -894.106255
PC08 -19693.702322  34504.130613  13807.832373     42.616239
PC09   1208.112131  40739.692845  12452.363122   -652.442964
PC10  -3406.113286  27241.013947 -31686.770527     35.358588
PC11  -3696.819682  18495.238582 -20500.824538    471.542060
PC12 -17139.565306   1212.593986 -21952.484667   -217.527979
PC13 -12239.334302  34682.048158  20528.955540    426.351944
PC14 -13778.093591  14872.895558  19222.097548    458.704909
PC16  -5421.491266  35610.187892  22474.934733   -409.941870
PC19   3093.753023 -15844.805872 -22728.589606   -917.999186
PC20  20845.969555 -12093.842398 -14021.238436   -279.847236
PC21 -27618.423431    593.613679  -4053.563840   -961.447750
PC22 -17516.100244 -10742.752262 -18893.891331    -66.722463
PC23   7616.687356  18345.795992 -19600.156512   -775.963452
PC24 -16875.458082  19175.703800  11191.862710    951.810580
PC25  -5632.086880  26592.205733  -6282.964729    355.149775
PC26 -17411.626084   1489.939619  21730.495064   -266.021519
PC27  20569.191713   7346.734152  17355.462862    287.889720
PC28  18456.989603  20615.239910   3638.433559    219.683556
PC29  -4825.669143 -22949.291583  15114.132537    257.626041
PC30  12082.930202 -10574.904537  22812.785712    -41.960382
PC32  27572.022054   -715.275683   4195.547508   -587.058924
PC33  -3148.642788  15917.154949  22715.604596   -960.586069
PC34 -10884.382473  12054.853594 -22709.039511    395.071436
PC35 -19148.793302 -19973.102223  -3467.772232    405.775094
PC36   6484.719679 -26485.128034   5978.020052     25.881670
PC37  17370.553150   -751.953119 -21827.077020   -947.312286
PC38 -23221.429063  34641.172623   5789.138966    144.134181
PC39  -7691.142012  31764.397234  26830.953044     -7.662900
PC40 -17364.218945  19096.693727 -33407.232474    -61.822530
PC41  16720.187657  11158.527419  19406.582486   -909.631986
PC42 -22064.245756  11490.173010  12729.024073   -445.949246
PC43   3922.578066  22728.693460 -15739.410749     64.996780
PC44 -20955.178009  -6576.174754 -17212.571941    420.103344
PC45  -7508.922638 -18278.196003  19706.190266    -76.717139
PC46  16630.637020 -19813.325313 -10529.334285   -133.505188
PE02 -22126.835042  -1725.517679  19566.327844    113.055825
PE03 -27247.026032 -11143.588460   3169.547748   -101.858681
PE04  21930.370022  -4208.665933 -19416.304217   -355.005037
PE05 -16528.550787 -19707.273208 -14643.521087   4731.194525
PE07  -4368.190900  16645.300400  24093.092435   -110.185359
PE08 -22384.388906   3526.340172  19056.538280   -242.501139
PE09   4391.674556 -16473.642198 -24191.144545   -378.667407
PE10  10221.076884 -21231.891790  17906.792391   -611.052021
PE11   4307.971105 -27808.849527   9135.851122   3145.367383
PE12  14154.012248 -12167.574706  22964.500953   -958.733011
PE13  -4648.324544  27563.160383  -9759.446908    -20.633612
PE14  14299.507731  18176.818607 -10817.234950     72.873612
PE15 -14228.473061  11619.029527 -23207.965416    -92.527058
PE18 -27477.645814 -15490.138894      1.458388    461.292741
PE19  26728.551129  12670.363715  -1098.247087   -390.347007
PE21   6184.326648  15916.523240 -24185.504743   -585.125108
PE24  14443.083005 -21383.403404  14500.586353   -663.741055
PE25  -5759.118199 -16146.997573  24127.989365      2.392701
PE26   7889.749062  26839.787595   9690.668790    403.012775
PE27 -14039.414130  21425.638798 -14829.240533   -304.452207
PE30 -25834.268691  14044.220259   3315.463335   -118.006897
PE31  25758.659489 -14241.444173  -3164.436556    -18.824458
PE33  15222.319995  11496.264012  22638.436560      9.332583
PE34 -15351.718906 -10874.379409 -22855.095830   -101.240248
PE36  -7478.771745 -27126.634885  -9154.582830   -202.390652
PG01  11309.978334 -14636.191925  18584.554462    175.206017
PG02  14722.365690  -4390.081328  22141.119510   -466.560441
PG03  23137.480367 -11782.323791   5133.316254    265.527417
PG04  21274.222944  -1430.484915 -15905.607758    320.323627
PG05 -20679.435042   1305.626976 -16840.488618   -166.230383
PG06  -5695.643462 -25153.241317  -6026.696151    357.952940
PG07   6225.474432 -22726.065029 -11275.710139    -89.498353
PG08  25084.708494   4685.212813   8014.437722     70.899218
PG09   9940.613000 -12140.658909 -21515.218581    132.504234
PG10  -1939.622708  17529.492929  19962.143782     -1.668707
PG11 -11865.830871 -17275.185776 -16320.246762   -613.566841
PG12 -23976.081617   9639.316056   5709.306910   -489.298314
PG13 -22770.701077 -13814.999281   1446.411886    636.098706
PG14   6095.384311 -19024.247559  17432.289577    356.344416
PG15 -25407.928019  -1949.430660   7352.281901    140.055991
PG16  18053.225222   5173.516613 -19290.981717   -335.796103
PG17  -3181.271662 -17486.105967  20109.213010    712.820630
PG18  -5954.565638  23344.541733 -10953.654671   -579.927989
PG19 -12868.270091 -18856.675346  13695.174799    457.153659
PG20 -12731.999839  -8881.359565 -21478.305231    383.098157
PG21  15824.736334   2371.958087  21784.925927    130.459219
PG22  -1339.093970 -16368.471984  21352.177845     12.467055
PG23 -13589.652090  19609.818912  11491.692911    182.336224
PG24 -15468.858184   2019.647927  21090.435786   -449.400765
PG25 -19785.218023  17222.994986  -3438.283543    491.888354
PG26   8643.784839  13433.911918 -21349.444466    176.767022
PG27  23040.500231  13320.162767  -3401.651784    -13.415200
PG28   5267.832395  25833.393810  -3249.352937   -172.903666
PG29 -12713.177852   9523.124704 -21356.284478   -604.195393
PG30   -988.424886 -26342.594370  -1508.509545   -416.564393
PG31  10382.137078  20677.441570 -12886.313314   -228.003781
PG32   7646.878716  17752.222237  18511.739587   -616.490944
PJ02 -36081.302421  19949.913118  -4154.679181     -3.154767
PJ03 -20139.792452  25890.945441 -21876.107655     -0.167839
PJ04 -27690.346936  29011.110840  18939.283661     50.637163
PR01   4968.151537 -10626.054253 -22641.621187     80.310688
PR02 -13603.133754  -9873.003302 -19110.487134    -22.619370
PR03 -24798.577350  -3603.327788  -4554.328736     96.784379
PR04 -22084.892534   4116.181056  12107.351276    228.575571
PR05  -7582.490016   9816.902356  22302.997491    128.762184
PR07  25036.741442   3301.494956   3817.658193     78.456565
PR08  21980.757221  -4385.510544 -12140.106831    -74.796676
PR09   2122.560099  15588.647468 -20089.519269    176.611667
PR11  16541.897565 -14638.669313 -12735.001782     30.510700
PR12  10768.486108 -22231.414595   6411.406879     38.072445
PR13     53.052446 -17086.177065  18923.125278    -45.512231
PR14 -12776.609279     72.350461  22087.558192     26.245918
PR15 -16683.359033  15580.072122  11404.309870     81.166527
PR16 -10867.343469  22270.460128  -6119.268103     24.202461
PR17 -14625.320081 -11872.900471 -17209.886880     70.997379
PR18  -9479.284873   4478.481253 -23240.501292    133.295149
PR19  -1246.702177  17533.554213 -18488.157098   -270.195815
PR20  10458.658987  23290.538134    410.618932   -110.122642
PR21  14451.206450  11881.406819  17327.960984    -86.368562
PR22   9499.379951  -5444.978061  23063.376266    113.912180
PR24 -11649.661447 -22677.342871   -948.785879    -48.662724
PR25  14321.115183  12153.502321  17255.558388    -24.158441
PR26  22489.611697  -4083.977201 -11270.634003    -29.077186
EOF
